NORAD_CAT_ID,OBJECT_NAME,OBJECT_TYPE,EPOCH,MEAN_MOTION,ECCENTRICITY,INCLINATION,RA_OF_ASC_NODE,ARG_OF_PERICENTER,MEAN_ANOMALY,BSTAR,MEAN_MOTION_DOT,MEAN_MOTION_DDOT,TLE_LINE0,TLE_LINE1,TLE_LINE2,SEMIMAJOR_AXIS,PERIOD,APOGEE,PERIGEE,DECAYED
53407.0,STARLINK-4537,PAYLOAD,2024-05-15 13:56:56,15.08857801,0.0001572,53.2168,201.1623,99.493,260.624,4.8059e-05,4.77e-06,0.0,0 STARLINK-4537,1 53407U 22097V   24136.58121381  .00000477  00000-0  48059-4 0  9992,2 53407  53.2168 201.1623 0001572  99.4930 260.6240 15.08857801 98684,6917.826,95.436,540.778,538.603,0.0
53407.0,STARLINK-4537,PAYLOAD,2024-05-16 10:36:56,15.0886728,0.0001535,53.216,197.2959,96.7609,263.3557,0.00031564,4.743e-05,0.0,0 STARLINK-4537,1 53407U 22097V   24137.44232460  .00004743  00000-0  31564-3 0  9991,2 53407  53.2160 197.2959 0001535  96.7609 263.3557 15.08867280 98813,6917.797,95.436,540.724,538.6,0.0
53407.0,STARLINK-4537,PAYLOAD,2024-05-16 10:36:57,15.08865126,0.0001552,53.2159,197.2963,96.9684,263.1484,0.00062361,9.657e-05,0.0,0 STARLINK-4537,1 53407U 22097V   24137.44232670  .00009657  00000-0  62361-3 0  9992,2 53407  53.2159 197.2963 0001552  96.9684 263.1484 15.08865126 98320,6917.804,95.436,540.742,538.595,0.0
53407.0,STARLINK-4537,PAYLOAD,2024-05-17 10:27:44,15.08843581,0.0001086,53.2159,192.8352,74.3974,285.7137,0.00010337,1.358e-05,0.0,0 STARLINK-4537,1 53407U 22097V   24138.43592933  .00001358  00000-0  10337-3 0  9999,2 53407  53.2159 192.8352 0001086  74.3974 285.7137 15.08843581 98479,6917.869,95.437,540.486,538.983,0.0
53407.0,STARLINK-4537,PAYLOAD,2024-05-17 20:00:03,15.08838887,9.18e-05,53.216,191.0514,60.4429,299.6655,0.00011663,1.569e-05,0.0,0 STARLINK-4537,1 53407U 22097V   24138.83337103  .00001569  00000-0  11663-3 0  9996,2 53407  53.2160 191.0514 0000918  60.4429 299.6655 15.08838887 99020,6917.884,95.438,540.384,539.114,0.0
53407.0,STARLINK-4537,PAYLOAD,2024-05-18 13:29:17,15.08847681,0.0001227,53.2163,187.7833,81.9168,278.1963,0.00042212,6.438e-05,0.0,0 STARLINK-4537,1 53407U 22097V   24139.56200965  .00006438  00000-0  42212-3 0  9996,2 53407  53.2163 187.7833 0001227  81.9168 278.1963 15.08847681 99139,6917.857,95.437,540.571,538.873,0.0
53407.0,STARLINK-4537,PAYLOAD,2024-05-18 19:50:50,15.08838949,0.0001218,53.2156,186.5898,57.5516,302.5593,0.00057651,8.899e-05,0.0,0 STARLINK-4537,1 53407U 22097V   24139.82697552  .00008899  00000-0  57651-3 0  9993,2 53407  53.2156 186.5898 0001218  57.5516 302.5593 15.08838949 98682,6917.884,95.438,540.591,538.906,0.0
53407.0,STARLINK-4537,PAYLOAD,2024-05-19 08:33:56,15.0881598,0.0001188,53.2154,184.2144,58.6219,301.4889,-0.00025476,-4.337e-05,0.0,0 STARLINK-4537,1 53407U 22097V   24140.35690799 -.00004337  00000-0 -25476-3 0  9994,2 53407  53.2154 184.2144 0001188  58.6219 301.4889 15.08815980 99257,6917.954,95.439,540.641,538.997,0.0
53407.0,STARLINK-4537,PAYLOAD,2024-05-19 19:41:38,15.08830504,0.000115,53.2162,182.1345,67.3645,292.7469,0.00011382,1.524e-05,0.0,0 STARLINK-4537,1 53407U 22097V   24140.82058868  .00001524  00000-0  11382-3 0  9995,2 53407  53.2162 182.1345 0001150  67.3645 292.7469 15.08830504 98833,6917.909,95.438,540.57,538.979,0.0
53407.0,STARLINK-4537,PAYLOAD,2024-05-20 11:35:30,15.08859324,0.0001218,53.2152,179.1597,61.3825,298.729,0.001165,0.00018311,0.0,0 STARLINK-4537,1 53407U 22097V   24141.48298674  .00018311  00000-0  11650-2 0  9998,2 53407  53.2152 179.1597 0001218  61.3825 298.7290 15.08859324 98936,6917.821,95.436,540.529,538.844,0.0
53407.0,STARLINK-4537,PAYLOAD,2024-05-21 08:15:30,15.08849319,0.0001228,53.2141,175.2909,130.9709,229.139,0.00085444,0.0001334,0.0,0 STARLINK-4537,1 53407U 22097V   24142.34410361  .00013340  00000-0  85444-3 0  9993,2 53407  53.2141 175.2909 0001228 130.9709 229.1390 15.08849319 99060,6917.852,95.437,540.566,538.867,0.0
53407.0,STARLINK-4537,PAYLOAD,2024-05-22 01:44:45,15.08826292,0.0001021,53.2152,172.0205,101.428,258.6827,0.00027136,4.032e-05,0.0,0 STARLINK-4537,1 53407U 22097V   24143.07275341  .00004032  00000-0  27136-3 0  9993,2 53407  53.2152 172.0205 0001021 101.4280 258.6827 15.08826292 99173,6917.922,95.438,540.494,539.081,0.0
53407.0,STARLINK-4537,PAYLOAD,2024-05-22 08:06:18,15.08821154,8.62e-05,53.2141,170.8284,126.7875,233.3197,0.0004461,6.815e-05,0.0,0 STARLINK-4537,1 53407U 22097V   24143.33771795  .00006815  00000-0  44610-3 0  9993,2 53407  53.2141 170.8284 0000862 126.7875 233.3197 15.08821154 99707,6917.938,95.439,540.399,539.207,0.0
53407.0,STARLINK-4537,PAYLOAD,2024-05-23 01:35:33,15.08830326,9.66e-05,53.2145,167.5579,127.9846,232.1233,0.00050916,7.823e-05,0.0,0 STARLINK-4537,1 53407U 22097V   24144.06636552  .00007823  00000-0  50916-3 0  9991,2 53407  53.2145 167.5579 0000966 127.9846 232.1233 15.08830326 99324,6917.91,95.438,540.443,539.107,0.0
53407.0,STARLINK-4537,PAYLOAD,2024-05-23 07:57:06,15.08841422,9.83e-05,53.2146,166.3706,95.6998,264.4106,0.00064462,9.987e-05,0.0,0 STARLINK-4537,1 53407U 22097V   24144.33132520  .00009987  00000-0  64462-3 0  9991,2 53407  53.2146 166.3706 0000983  95.6998 264.4106 15.08841422 99856,6917.876,95.437,540.421,539.061,0.0
53407.0,STARLINK-4537,PAYLOAD,2024-05-24 04:37:06,15.08867926,9.84e-05,53.214,162.5052,77.0114,283.0988,0.00082566,0.00012887,0.0,0 STARLINK-4537,1 53407U 22097V   24145.19243563  .00012887  00000-0  82566-3 0  9994,2 53407  53.2140 162.5052 0000984  77.0114 283.0988 15.08867926 99499,6917.795,95.436,540.341,538.979,0.0
53407.0,STARLINK-4537,PAYLOAD,2024-05-24 07:47:52,15.08871243,9.56e-05,53.2139,161.9105,73.8844,286.2253,0.00083068,0.00012968,0.0,0 STARLINK-4537,1 53407U 22097V   24145.32491297  .00012968  00000-0  83068-3 0  9996,2 53407  53.2139 161.9105 0000956  73.8844 286.2253 15.08871243100009,6917.785,95.436,540.311,538.989,0.0
53407.0,STARLINK-4537,PAYLOAD,2024-05-25 04:27:52,15.08853487,9.5e-05,53.2145,158.0434,91.0592,269.0509,4.5594e-05,4.38e-06,0.0,0 STARLINK-4537,1 53407U 22097V   24146.18602648  .00000438  00000-0  45594-4 0  9997,2 53407  53.2145 158.0434 0000950  91.0592 269.0509 15.08853487 99644,6917.839,95.437,540.361,539.047,0.0
53407.0,STARLINK-4537,PAYLOAD,2024-05-25 10:49:25,15.08850453,9.79e-05,53.2147,156.8563,79.105,281.0052,4.5921e-06,-2.15e-06,0.0,0 STARLINK-4537,1 53407U 22097V   24146.45098589 -.00000215  00000-0  45921-5 0  9999,2 53407  53.2147 156.8563 0000979  79.1050 281.0052 15.08850453100170,6917.848,95.437,540.391,539.036,0.0
53407.0,STARLINK-4537,PAYLOAD,2024-05-26 04:18:39,15.08841771,0.0001031,53.2148,153.5855,80.5477,279.5631,7.4424e-05,8.97e-06,0.0,0 STARLINK-4537,1 53407U 22097V   24147.17962730  .00000897  00000-0  74424-4 0  9991,2 53407  53.2148 153.5855 0001031  80.5477 279.5631 15.08841771 99791,6917.875,95.437,540.453,539.027,0.0
53407.0,STARLINK-4537,PAYLOAD,2024-05-26 10:40:12,15.08843844,0.0001039,53.215,152.3963,84.5221,275.5889,-5.6935e-06,-3.78e-06,0.0,0 STARLINK-4537,1 53407U 22097V   24147.44458641 -.00000378  00000-0 -56935-5 0  9996,2 53407  53.2150 152.3963 0001039  84.5221 275.5889 15.08843844100326,6917.869,95.437,540.452,539.015,0.0
53407.0,STARLINK-4537,PAYLOAD,2024-05-26 17:01:44,15.08844057,8.95e-05,53.2153,151.2068,97.3929,262.7165,6.3746e-05,7.27e-06,0.0,0 STARLINK-4537,1 53407U 22097V   24147.70954611  .00000727  00000-0  63746-4 0  9996,2 53407  53.2153 151.2068 0000895  97.3929 262.7165 15.08844057100365,6917.868,95.437,540.352,539.114,0.0
53407.0,STARLINK-4537,PAYLOAD,2024-05-27 07:20:13,15.08842187,9.99e-05,53.2157,148.5309,90.5547,269.556,0.00010841,1.438e-05,0.0,0 STARLINK-4537,1 53407U 22097V   24148.30570732  .00001438  00000-0  10841-3 0  9998,2 53407  53.2157 148.5309 0000999  90.5547 269.5560 15.08842187 99961,6917.874,95.437,540.43,539.048,0.0
53407.0,STARLINK-4537,PAYLOAD,2024-05-28 07:11:00,15.08840776,0.0001031,53.2152,144.0699,88.2589,271.8521,7.7857e-05,9.52e-06,0.0,0 STARLINK-4537,1 53407U 22097V   24149.29930775  .00000952  00000-0  77857-4 0  9995,2 53407  53.2152 144.0699 0001031  88.2589 271.8521 15.08840776100606,6917.878,95.438,540.456,539.03,0.0
53407.0,STARLINK-4537,PAYLOAD,2024-05-29 05:26:24,15.08838526,0.0001025,53.2157,139.9062,85.687,274.4239,8.8968e-05,1.128e-05,0.0,0 STARLINK-4537,1 53407U 22097V   24150.22667238  .00001128  00000-0  88968-4 0  9992,2 53407  53.2157 139.9062 0001025  85.6870 274.4239 15.08838526100251,6917.885,95.438,540.459,539.041,0.0
53407.0,STARLINK-4537,PAYLOAD,2024-05-29 08:37:10,15.08839639,0.0001061,53.2161,139.3116,86.6263,273.485,8.9671e-05,1.14e-05,0.0,0 STARLINK-4537,1 53407U 22097V   24150.35915154  .00001140  00000-0  89671-4 0  9995,2 53407  53.2161 139.3116 0001061  86.6263 273.4850 15.08839639100767,6917.881,95.438,540.48,539.013,0.0
53407.0,STARLINK-4537,PAYLOAD,2024-05-30 08:27:57,15.08846381,0.0001115,53.216,134.851,82.9063,277.2056,0.00013997,1.941e-05,0.0,0 STARLINK-4537,1 53407U 22097V   24151.35274743  .00001941  00000-0  13997-3 0  9994,2 53407  53.2160 134.8510 0001115  82.9063 277.2056 15.08846381100426,6917.861,95.437,540.497,538.955,0.0
53407.0,STARLINK-4537,PAYLOAD,2024-05-31 05:07:56,15.08871675,0.0001139,53.2156,130.9864,81.5446,278.5675,0.00048542,7.453e-05,0.0,0 STARLINK-4537,1 53407U 22097V   24152.21384946  .00007453  00000-0  48542-3 0  9995,2 53407  53.2156 130.9864 0001139  81.5446 278.5675 15.08871675100555,6917.784,95.436,540.437,538.861,0.0
53407.0,STARLINK-4537,PAYLOAD,2024-05-31 08:18:42,15.0887567,0.0001134,53.2156,130.3917,82.6895,277.4226,0.00053249,8.205e-05,0.0,0 STARLINK-4537,1 53407U 22097V   24152.34632618  .00008205  00000-0  53249-3 0  9997,2 53407  53.2156 130.3917 0001134  82.6895 277.4226 15.08875670101069,6917.771,95.435,540.421,538.852,0.0
53407.0,STARLINK-4537,PAYLOAD,2024-06-01 04:58:43,15.08844504,0.0001253,53.2164,126.5246,94.6171,265.4965,-0.00012024,-2.201e-05,0.0,0 STARLINK-4537,1 53407U 22097V   24153.20745358 -.00002201  00000-0 -12024-3 0  9997,2 53407  53.2164 126.5246 0001253  94.6171 265.4965 15.08844504100701,6917.867,95.437,540.598,538.865,0.0
